IRIDIUM 921 [-]         
1 24873U 97034E   23352.54084712  .00021004  00000+0  74422-3 0  9991
2 24873  86.3862  17.2102 0003754 183.5809 176.5413 15.28986017447341
IRIDIUM 26 [-]          
1 24903U 97043A   23353.46641574  .00000653  00000+0  21769-3 0  9995
2 24903  86.3956 339.5957 0002464  91.6611 268.4868 14.36121518378864
IRIDIUM 22 [-]          
1 24907U 97043E   23352.89490856  .00000524  00000+0  17727-3 0  9996
2 24907  86.3961 342.9279 0002193  91.1110 269.0337 14.35023734378405
DUMMY MASS 1 [-]        
1 24925U 97048A   23352.59101966  .00000509  00000+0  55188-4 0  9996
2 24925  86.3349  27.8671 0004527 289.7507  70.3229 14.85965735423931
DUMMY MASS 2 [-]        
1 24926U 97048B   23352.59825227  .00000509  00000+0  55410-4 0  9998
2 24926  86.3349  29.3747 0005554 304.2826  55.7872 14.85726588423966
IRIDIUM 29 [-]          
1 24944U 97051A   23352.60662132  .00000523  00000+0  17519-3 0  9991
2 24944  86.3961  13.0029 0001968  95.0193 265.1228 14.35481327374833
IRIDIUM 33 [-]          
1 24946U 97051C   23352.60682393  .00000329  00000+0  11053-3 0  9995
2 24946  86.3876  12.2707 0009866  68.2602 291.9643 14.34201256374395
IRIDIUM 28 [-]          
1 24948U 97051E   23353.14818688  .00000480  00000+0  15732-3 0  9991
2 24948  86.3965  10.6060 0002608  88.3749 271.7747 14.36423355375505
